NORAD_CAT_ID,OBJECT_NAME,OBJECT_TYPE,EPOCH,MEAN_MOTION,ECCENTRICITY,INCLINATION,RA_OF_ASC_NODE,ARG_OF_PERICENTER,MEAN_ANOMALY,BSTAR,MEAN_MOTION_DOT,MEAN_MOTION_DDOT,TLE_LINE0,TLE_LINE1,TLE_LINE2,SEMIMAJOR_AXIS,PERIOD,APOGEE,PERIGEE,DECAYED
52295.0,STARLINK-3765,PAYLOAD,2024-01-03 11:38:33,15.08841048,0.0001376,53.217,73.4219,105.0308,255.0837,-1.0971e-05,-4.63e-06,0.0,0 STARLINK-3765,1 52295U 22041AL  24003.48510633 -.00000463  00000-0 -10971-4 0  9998,2 52295  53.2170  73.4219 0001376 105.0308 255.0837 15.08841048 95523,6917.877,95.437,540.694,538.79,0.0
52295.0,STARLINK-3765,PAYLOAD,2024-01-04 11:29:20,15.08841357,0.0001178,53.2171,68.9618,102.5615,257.5509,9.2492e-05,1.185e-05,0.0,0 STARLINK-3765,1 52295U 22041AL  24004.47870466  .00001185  00000-0  92492-4 0  9999,2 52295  53.2171  68.9618 0001178 102.5615 257.5509 15.08841357 94456,6917.876,95.437,540.556,538.926,0.0
52295.0,STARLINK-3765,PAYLOAD,2024-01-05 12:55:30,15.0884364,0.0001225,53.2171,64.2043,96.9886,263.1246,4.6522e-05,4.53e-06,0.0,0 STARLINK-3765,1 52295U 22041AL  24005.53854728  .00000453  00000-0  46522-4 0  9990,2 52295  53.2171  64.2043 0001225  96.9886 263.1246 15.08843640 95837,6917.869,95.437,540.582,538.887,0.0
52295.0,STARLINK-3765,PAYLOAD,2024-01-06 11:10:54,15.08842188,0.0001285,53.2173,60.0414,86.6548,273.4591,4.4146e-05,4.15e-06,0.0,0 STARLINK-3765,1 52295U 22041AL  24006.46590886  .00000415  00000-0  44146-4 0  9993,2 52295  53.2173  60.0414 0001285  86.6548 273.4591 15.08842188 94755,6917.874,95.437,540.628,538.85,0.0
52295.0,STARLINK-3765,PAYLOAD,2024-01-07 09:26:18,15.08843307,0.0001444,53.2176,55.879,83.6358,276.4798,3.1856e-05,2.19e-06,0.0,0 STARLINK-3765,1 52295U 22041AL  24007.39326911  .00000219  00000-0  31856-4 0  9998,2 52295  53.2176  55.8790 0001444  83.6358 276.4798 15.08843307 96118,6917.87,95.437,540.734,538.736,0.0
52295.0,STARLINK-3765,PAYLOAD,2024-01-08 09:17:05,15.08834442,0.0001506,53.2176,51.4177,77.2509,282.8651,0.00018715,2.691e-05,0.0,0 STARLINK-3765,1 52295U 22041AL  24008.38687005  .00002691  00000-0  18715-3 0  9996,2 52295  53.2176  51.4177 0001506  77.2509 282.8651 15.08834442 95045,6917.897,95.438,540.804,538.721,0.0
52295.0,STARLINK-3765,PAYLOAD,2024-01-09 07:32:29,15.0883925,0.0001772,53.2189,47.2567,108.9749,251.1435,1.8687e-05,9e-08,0.0,0 STARLINK-3765,1 52295U 22041AL  24009.31422992  .00000009  00000-0  18687-4 0  9992,2 52295  53.2189  47.2567 0001772 108.9749 251.1435 15.08839250 95184,6917.883,95.438,540.974,538.522,0.0
52295.0,STARLINK-3765,PAYLOAD,2024-01-09 23:26:20,15.08837919,0.0002078,53.2196,44.2893,122.8709,237.2484,2.2293e-05,6.7e-07,0.0,0 STARLINK-3765,1 52295U 22041AL  24009.97663095  .00000067  00000-0  22293-4 0  9997,2 52295  53.2196  44.2893 0002078 122.8709 237.2484 15.08837919 96508,6917.887,95.438,541.189,538.314,0.0
52295.0,STARLINK-3765,PAYLOAD,2024-01-10 08:58:39,15.08837096,0.0001839,53.2187,42.5027,113.3318,246.7868,1.3233e-05,-7.8e-07,0.0,0 STARLINK-3765,1 52295U 22041AL  24010.37407272 -.00000078  00000-0  13233-4 0  9993,2 52295  53.2187  42.5027 0001839 113.3318 246.7868 15.08837096 95341,6917.889,95.438,541.026,538.482,0.0
52295.0,STARLINK-3765,PAYLOAD,2024-01-11 08:49:26,15.08842695,0.0001702,53.2175,38.0328,118.4125,241.7038,5.2108e-05,5.41e-06,0.0,0 STARLINK-3765,1 52295U 22041AL  24011.36766882  .00000541  00000-0  52108-4 0  9996,2 52295  53.2175  38.0328 0001702 118.4125 241.7038 15.08842695 96710,6917.872,95.437,540.915,538.56,0.0
52295.0,STARLINK-3765,PAYLOAD,2024-01-12 10:15:37,15.08838168,0.0001541,53.2172,33.277,105.405,254.7113,8.7377e-05,1.103e-05,0.0,0 STARLINK-3765,1 52295U 22041AL  24012.42751479  .00001103  00000-0  87377-4 0  9991,2 52295  53.2172  33.2770 0001541 105.4050 254.7113 15.08838168 96874,6917.886,95.438,540.817,538.685,0.0
52295.0,STARLINK-3765,PAYLOAD,2024-01-13 10:06:24,15.08840181,0.0001557,53.2192,28.8166,96.5883,263.5287,6.4764e-05,7.43e-06,0.0,0 STARLINK-3765,1 52295U 22041AL  24013.42111811  .00000743  00000-0  64764-4 0  9996,2 52295  53.2192  28.8166 0001557  96.5883 263.5287 15.08840181 95806,6917.88,95.438,540.822,538.668,0.0
52295.0,STARLINK-3765,PAYLOAD,2024-01-14 00:24:53,15.08834396,0.0001908,53.2188,26.1436,65.2908,294.8283,7.4781e-05,9.02e-06,0.0,0 STARLINK-3765,1 52295U 22041AL  24014.01728488  .00000902  00000-0  74781-4 0  9993,2 52295  53.2188  26.1436 0001908  65.2908 294.8283 15.08834396 97113,6917.898,95.438,541.082,538.443,0.0
52295.0,STARLINK-3765,PAYLOAD,2024-01-14 08:21:48,15.08840494,0.000151,53.219,24.6537,91.0016,269.1149,6.3979e-05,7.3e-06,0.0,0 STARLINK-3765,1 52295U 22041AL  24014.34848024  .00000730  00000-0  63979-4 0  9994,2 52295  53.2190  24.6537 0001510  91.0016 269.1149 15.08840494 97164,6917.879,95.438,540.788,538.699,0.0
52295.0,STARLINK-3765,PAYLOAD,2024-01-15 06:37:12,15.08851706,0.0001638,53.2185,20.4934,82.8758,277.2421,0.00010016,1.307e-05,0.0,0 STARLINK-3765,1 52295U 22041AL  24015.27583488  .00001307  00000-0  10016-3 0  9991,2 52295  53.2185  20.4934 0001638  82.8758 277.2421 15.08851706 97302,6917.845,95.437,540.843,538.576,0.0
52295.0,STARLINK-3765,PAYLOAD,2024-01-16 00:06:27,15.08840171,0.0002262,53.2177,17.2267,62.2192,297.9029,4.6761e-05,4.56e-06,0.0,0 STARLINK-3765,1 52295U 22041AL  24016.00448494  .00000456  00000-0  46761-4 0  9991,2 52295  53.2177  17.2267 0002262  62.2192 297.9029 15.08840171 97413,6917.88,95.438,541.31,538.18,0.0
52295.0,STARLINK-3765,PAYLOAD,2024-01-16 03:17:13,15.08835549,0.0001703,53.2195,16.628,90.1465,269.9722,2.4083e-05,9.5e-07,0.0,0 STARLINK-3765,1 52295U 22041AL  24016.13696654  .00000095  00000-0  24083-4 0  9990,2 52295  53.2195  16.6280 0001703  90.1465 269.9722 15.08835549 96212,6917.894,95.438,540.937,538.581,0.0
52295.0,STARLINK-3765,PAYLOAD,2024-01-17 03:08:00,15.08849349,0.0001475,53.2185,12.1652,99.4279,260.688,1.7292e-05,-1.3e-07,0.0,0 STARLINK-3765,1 52295U 22041AL  24017.13055763 -.00000013  00000-0  17292-4 0  9996,2 52295  53.2185  12.1652 0001475  99.4279 260.6880 15.08849349 97583,6917.852,95.437,540.737,538.696,0.0
52295.0,STARLINK-3765,PAYLOAD,2024-01-17 04:43:23,15.08851834,0.0001665,53.2192,11.8685,102.7211,257.3968,4.3382e-05,4.03e-06,0.0,0 STARLINK-3765,1 52295U 22041AL  24017.19679543  .00000403  00000-0  43382-4 0  9991,2 52295  53.2192  11.8685 0001665 102.7211 257.3968 15.08851834 96376,6917.844,95.437,540.861,538.557,0.0
52295.0,STARLINK-3765,PAYLOAD,2024-01-18 04:34:10,15.08838183,0.0001535,53.2188,7.4069,104.565,255.5512,9.537e-05,1.23e-05,0.0,0 STARLINK-3765,1 52295U 22041AL  24018.19040350  .00001230  00000-0  95370-4 0  9993,2 52295  53.2188   7.4069 0001535 104.5650 255.5512 15.08838183 97740,6917.886,95.438,540.813,538.689,0.0
52295.0,STARLINK-3765,PAYLOAD,2024-01-18 06:09:33,15.08840143,0.0001588,53.2186,7.1083,109.2184,250.898,0.00010978,1.46e-05,0.0,0 STARLINK-3765,1 52295U 22041AL  24018.25664191  .00001460  00000-0  10978-3 0  9990,2 52295  53.2186   7.1083 0001588 109.2184 250.8980 15.08840143 96535,6917.88,95.438,540.844,538.646,0.0
52295.0,STARLINK-3765,PAYLOAD,2024-01-19 09:11:07,15.08843467,0.0001621,53.2178,2.0509,111.7448,248.3717,-5.8158e-06,-3.81e-06,0.0,0 STARLINK-3765,1 52295U 22041AL  24019.38272455 -.00000381  00000-0 -58158-5 0  9990,2 52295  53.2178   2.0509 0001621 111.7448 248.3717 15.08843467 97928,6917.87,95.437,540.856,538.613,0.0
52295.0,STARLINK-3765,PAYLOAD,2024-01-20 07:26:30,15.08845836,0.0001545,53.2183,357.8869,113.53,246.5855,0.00012841,1.757e-05,0.0,0 STARLINK-3765,1 52295U 22041AL  24020.31008099  .00001757  00000-0  12841-3 0  9999,2 52295  53.2183 357.8869 0001545 113.5300 246.5855 15.08845836 96841,6917.863,95.437,540.796,538.659,0.0
52295.0,STARLINK-3765,PAYLOAD,2024-01-20 21:44:59,15.08839139,0.0001593,53.2183,355.2164,105.2194,254.8974,8.0415e-05,9.92e-06,0.0,0 STARLINK-3765,1 52295U 22041AL  24020.90624800  .00000992  00000-0  80415-4 0  9991,2 52295  53.2183 355.2164 0001593 105.2194 254.8974 15.08839139 96936,6917.883,95.438,540.85,538.646,0.0
52295.0,STARLINK-3765,PAYLOAD,2024-01-21 04:06:32,15.08840368,0.0001629,53.2175,354.0239,122.2651,237.85,8.5051e-05,1.066e-05,0.0,0 STARLINK-3765,1 52295U 22041AL  24021.17120605  .00001066  00000-0  85051-4 0  9999,2 52295  53.2175 354.0239 0001629 122.2651 237.8500 15.08840368 98196,6917.879,95.438,540.871,538.617,0.0
52295.0,STARLINK-3765,PAYLOAD,2024-01-21 05:41:55,15.08843524,0.0001467,53.2183,353.7271,100.8348,259.2809,0.00010988,1.461e-05,0.0,0 STARLINK-3765,1 52295U 22041AL  24021.23744576  .00001461  00000-0  10988-3 0  9990,2 52295  53.2183 353.7271 0001467 100.8348 259.2809 15.08843524 96984,6917.87,95.437,540.749,538.72,0.0
52295.0,STARLINK-3765,PAYLOAD,2024-01-21 21:35:46,15.08836906,0.0001411,53.2193,350.7578,122.3221,237.7908,9.5633e-05,1.234e-05,0.0,0 STARLINK-3765,1 52295U 22041AL  24021.89984841  .00001234  00000-0  95633-4 0  9992,2 52295  53.2193 350.7578 0001411 122.3221 237.7908 15.08836906 97089,6917.89,95.438,540.731,538.779,0.0
52295.0,STARLINK-3765,PAYLOAD,2024-01-22 05:32:42,15.08849108,0.0001891,53.2187,349.2718,71.8581,288.2617,9.8582e-05,1.282e-05,0.0,0 STARLINK-3765,1 52295U 22041AL  24022.23104443  .00001282  00000-0  98582-4 0  9992,2 52295  53.2187 349.2718 0001891  71.8581 288.2617 15.08849108 97132,6917.853,95.437,541.026,538.409,0.0
52295.0,STARLINK-3765,PAYLOAD,2024-01-22 07:08:04,15.08854349,0.0001669,53.2182,348.9713,93.5996,266.5187,0.00014708,2.054e-05,0.0,0 STARLINK-3765,1 52295U 22041AL  24022.29727960  .00002054  00000-0  14708-3 0  9998,2 52295  53.2182 348.9713 0001669  93.5996 266.5187 15.08854349 98362,6917.837,95.437,540.856,538.547,0.0
52295.0,STARLINK-3765,PAYLOAD,2024-01-23 03:48:06,15.08840106,0.0001588,53.2182,345.1037,96.8916,263.2257,2.7791e-05,1.54e-06,0.0,0 STARLINK-3765,1 52295U 22041AL  24023.15840909  .00000154  00000-0  27791-4 0  9999,2 52295  53.2182 345.1037 0001588  96.8916 263.2257 15.08840106 98490,6917.88,95.438,540.844,538.647,0.0
